{
  "norad_id": 61724,
  "name": "STARLINK-32528",
  "history": [
    {
      "epoch": "2026-03-28T18:35:05.358048Z",
      "apogee_km": 476.16992353932073,
      "perigee_km": 474.3751526494834,
      "latitude_deg": -5.064659462533985e-06,
      "longitude_deg": -91.92431635546495,
      "height_km": 476.8556901092892,
      "semi_major_axis_km": 6853.409538094402,
      "eccentricity": 0.00013094,
      "inclination_deg": 53.1644,
      "raan_deg": 13.038,
      "arg_perigee_deg": 139.6654,
      "mean_anomaly_deg": 220.4444,
      "mean_motion_rev_day": 15.30180753
    },
    {
      "epoch": "2026-03-29T03:59:22.015392Z",
      "apogee_km": 476.161682848272,
      "perigee_km": 474.1934109104086,
      "latitude_deg": 1.2329755189199163e-05,
      "longitude_deg": 124.79885669054558,
      "height_km": 476.4229134270077,
      "semi_major_axis_km": 6853.31454687934,
      "eccentricity": 0.0001436,
      "inclination_deg": 53.1635,
      "raan_deg": 11.2168,
      "arg_perigee_deg": 110.6473,
      "mean_anomaly_deg": 249.4682,
      "mean_motion_rev_day": 15.30212567
    },
    {
      "epoch": "2026-03-30T03:30:13.076352Z",
      "apogee_km": 476.28038403683513,
      "perigee_km": 474.3956784032507,
      "latitude_deg": 9.222599318798015e-06,
      "longitude_deg": 126.57610776236173,
      "height_km": 476.4827963298376,
      "semi_major_axis_km": 6853.475031220043,
      "eccentricity": 0.0001375,
      "inclination_deg": 53.163,
      "raan_deg": 6.6725,
      "arg_perigee_deg": 105.1618,
      "mean_anomaly_deg": 254.9535,
      "mean_motion_rev_day": 15.30158819
    },
    {
      "epoch": "2026-03-30T11:20:28.316544Z",
      "apogee_km": 475.9287880646889,
      "perigee_km": 474.641441254671,
      "latitude_deg": 2.984869515415273e-05,
      "longitude_deg": 7.175945279487586,
      "height_km": 476.5474336259621,
      "semi_major_axis_km": 6853.422114659679,
      "eccentricity": 9.392e-05,
      "inclination_deg": 53.1607,
      "raan_deg": 5.1577,
      "arg_perigee_deg": 124.3863,
      "mean_anomaly_deg": 235.7227,
      "mean_motion_rev_day": 15.30176541
    },
    {
      "epoch": "2026-03-31T18:41:32.879328Z",
      "apogee_km": 476.13675237920415,
      "perigee_km": 474.5631917704168,
      "latitude_deg": -1.8569210565771245e-05,
      "longitude_deg": -110.45175149171149,
      "height_km": 476.2271821325659,
      "semi_major_axis_km": 6853.48697207481,
      "eccentricity": 0.0001148,
      "inclination_deg": 53.1625,
      "raan_deg": 359.0866,
      "arg_perigee_deg": 88.4497,
      "mean_anomaly_deg": 271.6635,
      "mean_motion_rev_day": 15.3015482
    },
    {
      "epoch": "2026-04-01T00:57:45.154080Z",
      "apogee_km": 476.12137956993956,
      "perigee_km": 474.49930565289014,
      "latitude_deg": -2.6411066208826668e-05,
      "longitude_deg": 154.0260953416807,
      "height_km": 476.22316621769187,
      "semi_major_axis_km": 6853.447342611415,
      "eccentricity": 0.00011834,
      "inclination_deg": 53.1624,
      "raan_deg": 357.8731,
      "arg_perigee_deg": 91.016,
      "mean_anomaly_deg": 269.0976,
      "mean_motion_rev_day": 15.30168092
    },
    {
      "epoch": "2026-04-02T20:51:12.783744Z",
      "apogee_km": 475.59158040600505,
      "perigee_km": 474.9007593824808,
      "latitude_deg": -1.6673451797569182e-05,
      "longitude_deg": -154.63675887184743,
      "height_km": 476.11134202523317,
      "semi_major_axis_km": 6853.383169894243,
      "eccentricity": 5.04e-05,
      "inclination_deg": 53.1622,
      "raan_deg": 349.3779,
      "arg_perigee_deg": 84.3258,
      "mean_anomaly_deg": 275.78,
      "mean_motion_rev_day": 15.30189584
    },
    {
      "epoch": "2026-04-02T22:25:16.717728Z",
      "apogee_km": 476.3798190524658,
      "perigee_km": 474.140540058017,
      "latitude_deg": -2.728149985170792e-06,
      "longitude_deg": -178.51662562947044,
      "height_km": 476.65060355206856,
      "semi_major_axis_km": 6853.397179555241,
      "eccentricity": 0.00016337,
      "inclination_deg": 53.1635,
      "raan_deg": 349.0788,
      "arg_perigee_deg": 116.0822,
      "mean_anomaly_deg": 244.0347,
      "mean_motion_rev_day": 15.30184892
    },
    {
      "epoch": "2026-04-03T17:13:55.337376Z",
      "apogee_km": 475.9298688474928,
      "perigee_km": 474.556451463397,
      "latitude_deg": 1.5607828128165626e-05,
      "longitude_deg": -105.09685631214815,
      "height_km": 475.8283741220112,
      "semi_major_axis_km": 6853.380160155444,
      "eccentricity": 0.0001002,
      "inclination_deg": 53.1606,
      "raan_deg": 345.432,
      "arg_perigee_deg": 62.843,
      "mean_anomaly_deg": 297.2673,
      "mean_motion_rev_day": 15.30190592
    },
    {
      "epoch": "2026-04-04T19:52:49.538496Z",
      "apogee_km": 475.9330641932647,
      "perigee_km": 474.54594078915943,
      "latitude_deg": -3.569921928223192e-05,
      "longitude_deg": -151.07224380090503,
      "height_km": 476.0371262388314,
      "semi_major_axis_km": 6853.376502491212,
      "eccentricity": 0.0001012,
      "inclination_deg": 53.1617,
      "raan_deg": 340.2769,
      "arg_perigee_deg": 81.6264,
      "mean_anomaly_deg": 278.4851,
      "mean_motion_rev_day": 15.30191817
    },
    {
      "epoch": "2026-04-04T23:00:56.314368Z",
      "apogee_km": 475.97459828415685,
      "perigee_km": 474.54552792855793,
      "latitude_deg": -7.621826538404967e-06,
      "longitude_deg": 161.1639854662644,
      "height_km": 476.12862643725657,
      "semi_major_axis_km": 6853.397063106357,
      "eccentricity": 0.00010426,
      "inclination_deg": 53.1616,
      "raan_deg": 339.6701,
      "arg_perigee_deg": 87.5946,
      "mean_anomaly_deg": 272.5174,
      "mean_motion_rev_day": 15.30184931
    },
    {
      "epoch": "2026-04-05T20:57:40.216032Z",
      "apogee_km": 475.8350459875546,
      "perigee_km": 474.56854897778067,
      "latitude_deg": -2.389261920414687e-05,
      "longitude_deg": -173.16732267852277,
      "height_km": 475.92234186797356,
      "semi_major_axis_km": 6853.338797482667,
      "eccentricity": 9.24e-05,
      "inclination_deg": 53.1612,
      "raan_deg": 335.423,
      "arg_perigee_deg": 73.6574,
      "mean_anomaly_deg": 286.4528,
      "mean_motion_rev_day": 15.30204445
    },
    {
      "epoch": "2026-04-05T22:31:43.609152Z",
      "apogee_km": 475.9291072333972,
      "perigee_km": 474.50840658499055,
      "latitude_deg": -3.464674120774118e-05,
      "longitude_deg": 162.950751770441,
      "height_km": 475.91286509673387,
      "semi_major_axis_km": 6853.355756909194,
      "eccentricity": 0.00010365,
      "inclination_deg": 53.1613,
      "raan_deg": 335.1196,
      "arg_perigee_deg": 73.2694,
      "mean_anomaly_deg": 286.842,
      "mean_motion_rev_day": 15.30198765
    },
    {
      "epoch": "2026-04-06T22:02:31.513056Z",
      "apogee_km": 475.991795856452,
      "perigee_km": 474.4662365812419,
      "latitude_deg": -6.776734224895104e-06,
      "longitude_deg": 164.73361335468,
      "height_km": 475.9588555525167,
      "semi_major_axis_km": 6853.366016218847,
      "eccentricity": 0.0001113,
      "inclination_deg": 53.1622,
      "raan_deg": 330.5677,
      "arg_perigee_deg": 77.2206,
      "mean_anomaly_deg": 282.8919,
      "mean_motion_rev_day": 15.30195329
    },
    {
      "epoch": "2026-04-08T14:47:54.452544Z",
      "apogee_km": 476.10697974298,
      "perigee_km": 474.3671821987855,
      "latitude_deg": 1.6574820318614632e-05,
      "longitude_deg": -96.17076021260499,
      "height_km": 475.785287279379,
      "semi_major_axis_km": 6853.3740809708825,
      "eccentricity": 0.00012693,
      "inclination_deg": 53.1621,
      "raan_deg": 322.6827,
      "arg_perigee_deg": 66.2576,
      "mean_anomaly_deg": 293.8558,
      "mean_motion_rev_day": 15.30192628
    },
    {
      "epoch": "2026-04-09T19:00:51.972480Z",
      "apogee_km": 475.982823401062,
      "perigee_km": 474.51893974955783,
      "latitude_deg": -1.7583404984663664e-05,
      "longitude_deg": -166.0340445791613,
      "height_km": 476.27939654523476,
      "semi_major_axis_km": 6853.38788157531,
      "eccentricity": 0.0001068,
      "inclination_deg": 53.1622,
      "raan_deg": 317.2179,
      "arg_perigee_deg": 100.2235,
      "mean_anomaly_deg": 259.8886,
      "mean_motion_rev_day": 15.30188006
    },
    {
      "epoch": "2026-04-09T23:43:01.502976Z",
      "apogee_km": 476.00489837476107,
      "perigee_km": 474.48961511559446,
      "latitude_deg": 1.42211377342576e-06,
      "longitude_deg": 122.32302774520183,
      "height_km": 476.2609449237765,
      "semi_major_axis_km": 6853.3842567451775,
      "eccentricity": 0.00011055,
      "inclination_deg": 53.1621,
      "raan_deg": 316.3078,
      "arg_perigee_deg": 98.7422,
      "mean_anomaly_deg": 261.3704,
      "mean_motion_rev_day": 15.3018922
    },
    {
      "epoch": "2026-04-11T13:20:18.456288Z",
      "apogee_km": 476.06679756621816,
      "perigee_km": 474.4315796216197,
      "latitude_deg": 4.190055341916443e-05,
      "longitude_deg": -90.82333919159619,
      "height_km": 476.2460672483546,
      "semi_major_axis_km": 6853.386188593919,
      "eccentricity": 0.0001193,
      "inclination_deg": 53.162,
      "raan_deg": 309.0271,
      "arg_perigee_deg": 96.9183,
      "mean_anomaly_deg": 263.1954,
      "mean_motion_rev_day": 15.30188573
    },
    {
      "epoch": "2026-04-13T06:05:41.397504Z",
      "apogee_km": 475.9845447220596,
      "perigee_km": 474.4914684431269,
      "latitude_deg": -8.242867925358872e-07,
      "longitude_deg": 8.269634782205337,
      "height_km": 476.20696885393335,
      "semi_major_axis_km": 6853.375006582593,
      "eccentricity": 0.00010893,
      "inclination_deg": 53.1607,
      "raan_deg": 301.1395,
      "arg_perigee_deg": 95.4238,
      "mean_anomaly_deg": 264.6887,
      "mean_motion_rev_day": 15.30192318
    }
  ]
}